{
  "norad_id": 58213,
  "name": "STARLINK-30813",
  "history": [
    {
      "epoch": "2026-03-28T11:13:07.958208",
      "apogee_km": 486.7267628671507,
      "perigee_km": 484.35330334910213,
      "latitude_deg": 3.5661842849068663,
      "longitude_deg": 46.175509120104834,
      "semi_major_axis_km": 6863.677033108126,
      "eccentricity": 0.0001729,
      "inclination_deg": 43.0059,
      "raan_deg": 87.9812,
      "arg_perigee_deg": 277.1224,
      "mean_anomaly_deg": 82.943,
      "mean_motion_rev_day": 15.26748501
    }
  ]
}